ONEWEB-0228             
1 48780U 21045P   23325.06984449 -.00000066  00000+0 -21010-3 0  9998
2 48780  87.8983  86.1404 0001403 100.8620 259.2669 13.15550806121984
